0 DELTA 1 DEB
1 12190U 78026AF  13283.13043350  .00000280  00000-0  21760-3 0  8372
2 12190 098.7598 328.4249 0011736 183.4051 239.3824 14.00317984668236
0 DELTA 1 DEB
1 12190U 78026AF  13284.13136284  .00000310  00000-0  23788-3 0  8389
2 12190 098.7598 329.3840 0011777 180.6905 245.1423 14.00318454668373
0 DELTA 1 DEB
1 12190U 78026AF  13285.35888006  .00000320  00000-0  24414-3 0  8399
2 12190 098.7596 330.5602 0011809 177.2359 313.2761 14.00319111668544
0 DELTA 1 DEB
1 12190U 78026AF  13286.35919529  .00000340  00000-0  25819-3 0  8409
2 12190 098.7593 331.5188 0011833 174.4593 316.0076 14.00319707668683
0 DELTA 1 DEB
1 12190U 78026AF  13287.35975854  .00000363  00000-0  27348-3 0  8418
2 12190 098.7591 332.4775 0011869 171.5760 320.0975 14.00320420668829
0 DELTA 1 DEB
1 12190U 78026AF  13288.36017215  .00000404  00000-0  30093-3 0  8426
2 12190 098.7589 333.4361 0011898 168.7753 323.3532 14.00321318668967
0 DELTA 1 DEB
1 12190U 78026AF  13289.71618181  .00000393  00000-0  29359-3 0  8436
2 12190 098.7587 334.7353 0011946 165.0986 319.1148 14.00322573669154
0 DELTA 1 DEB
1 12190U 78026AF  13291.13316438  .00000399  00000-0  29795-3 0  8446
2 12190 098.7586 336.0928 0011978 161.1458 262.3629 14.00323746669350
0 DELTA 1 DEB
1 12190U 78026AF  13292.36147216  .00000416  00000-0  30893-3 0  8450
2 12190 098.7587 337.2695 0012015 157.8249 334.3694 14.00324751669526
0 DELTA 1 DEB
1 12190U 78026AF  13293.36190473  .00000429  00000-0  31803-3 0  8461
2 12190 098.7587 338.2279 0012042 155.0787 337.6817 14.00325645669663
0 DELTA 1 DEB
1 12190U 78026AF  13294.36209289  .00000431  00000-0  31946-3 0  8470
2 12190 098.7589 339.1860 0012066 152.3556 339.7425 14.00326570669803
0 DELTA 1 DEB
1 12190U 78026AF  13295.84732315  .00000456  00000-0  33637-3 0  8482
2 12190 098.7590 340.6088 0012105 148.2912 266.9823 14.00327833670019
